[
    {
        "Altitude(m)": 604969.0891808874,
        "Argument of Periapsis(deg)": 0.0,
        "Eccentricity": 0.0,
        "Inclination(deg)": 60.0,
        "Latitude(deg)": -0.09269789296659695,
        "Longitude(deg)": -140.02247251907198,
        "Mean Anomaly(deg)": 0.0,
        "RAAN(deg)": 320.0,
        "Satellite Name": "Test1 1408",
        "Satellite Number": 1408,
        "Semi-Major Axis(m)": 6980739.136638005,
        "Time(s)": 0
    },
    {
        "Altitude(m)": 604900.0284154648,
        "Argument of Periapsis(deg)": 0.00010418945913296404,
        "Eccentricity": 0.0,
        "Inclination(deg)": 60.0,
        "Latitude(deg)": 0.44772763951359956,
        "Longitude(deg)": -139.7543487680124,
        "Mean Anomaly(deg)": 0.620106145461853,
        "RAAN(deg)": 319.9995799508602,
        "Satellite Name": "Test1 1408",
        "Satellite Number": 1408,
        "Semi-Major Axis(m)": 6980739.136638005,
        "Time(s)": 10
    }
]